{
  "version": 1,
  "fetchedAt": "2026-06-20T14:26:57.371Z",
  "source": "celestrak-gp",
  "counts": {
    "station": 24,
    "satellite": 520,
    "debris": 250
  },
  "objects": [
    {
      "id": "15483",
      "name": "SL-8 R/B",
      "noradId": 15483,
      "line1": "1 15483U 85006B   26171.16384985  .00000153  00000+0  59355-4 0  9990",
      "line2": "2 15483  74.0460  72.5867 0018936 319.2357 191.2299 14.37836124168755",
      "category": "satellite"
    },
    {
      "id": "15772",
      "name": "SL-12 R/B(2)",
      "noradId": 15772,
      "line1": "1 15772U 85042D   26171.18116870 -.00000027  00000+0  94169-5 0  9993",
      "line2": "2 15772  71.1073 231.1909 0036456 323.2280  68.1453 14.22006519128965",
      "category": "satellite"
    },
    {
      "id": "15945",
      "name": "SL-14 R/B",
      "noradId": 15945,
      "line1": "1 15945U 85069B   26171.26560190  .00000353  00000+0  37077-4 0  9996",
      "line2": "2 15945  82.5273 288.4706 0018014 208.4202 151.6034 14.86517484188072",
      "category": "satellite"
    },
    {
      "id": "16182",
      "name": "SL-16 R/B",
      "noradId": 16182,
      "line1": "1 16182U 85097B   26171.29775562  .00000096  00000+0  72094-4 0  9997",
      "line2": "2 16182  71.0034 284.5290 0005392 104.5895 285.1273 14.16610347101762",
      "category": "satellite"
    },
    {
      "id": "16496",
      "name": "SL-14 R/B",
      "noradId": 16496,
      "line1": "1 16496U 86006B   26170.94515780  .00000421  00000+0  42024-4 0  9993",
      "line2": "2 16496  82.5261 163.5178 0074830 294.1623  65.1783 14.86947877164408",
      "category": "satellite"
    },
    {
      "id": "16719",
      "name": "COSMOS 1743",
      "noradId": 16719,
      "line1": "1 16719U 86034A   26171.14800190  .00044964  00000+0  41848-3 0  9999",
      "line2": "2 16719  82.5279 325.5830 0004074 260.3039  99.7761 15.67182279196253",
      "category": "satellite"
    },
    {
      "id": "16792",
      "name": "SL-14 R/B",
      "noradId": 16792,
      "line1": "1 16792U 86046B   26171.18369465  .00000303  00000+0  32050-4 0  9997",
      "line2": "2 16792  82.4818 343.3435 0021671 247.8391 112.0526 14.85672698141621",
      "category": "satellite"
    },
    {
      "id": "16882",
      "name": "SL-14 R/B",
      "noradId": 16882,
      "line1": "1 16882U 86055B   26171.05897988  .00000290  00000+0  30564-4 0  9992",
      "line2": "2 16882  82.5202  30.4328 0018788 358.2644 158.1303 14.85724754134567",
      "category": "satellite"
    },
    {
      "id": "16908",
      "name": "AJISAI (EGS)",
      "noradId": 16908,
      "line1": "1 16908U 86061A   26171.32598447 -.00000102  00000+0 -29168-4 0  9998",
      "line2": "2 16908  50.0070 137.7427 0011196 188.5399 143.3587 12.44516755480777",
      "category": "satellite"
    },
    {
      "id": "17567",
      "name": "SL-14 R/B",
      "noradId": 17567,
      "line1": "1 17567U 87024B   26170.97788487  .00000289  00000+0  30052-4 0  9993",
      "line2": "2 17567  82.5279 356.6271 0016725 283.1537  76.7813 14.86214627103323",
      "category": "satellite"
    },
    {
      "id": "17589",
      "name": "COSMOS 1833",
      "noradId": 17589,
      "line1": "1 17589U 87027A   26171.29383228  .00000337  00000+0  20577-3 0  9994",
      "line2": "2 17589  70.9187 110.3381 0022893  49.9325 310.3799 14.13052434 24811",
      "category": "satellite"
    },
    {
      "id": "17590",
      "name": "SL-16 R/B",
      "noradId": 17590,
      "line1": "1 17590U 87027B   26170.96890338 -.00000137  00000+0 -44161-4 0  9990",
      "line2": "2 17590  71.0032  60.9671 0006609 309.1403  50.9133 14.17171124 29839",
      "category": "satellite"
    },
    {
      "id": "17912",
      "name": "SL-14 R/B",
      "noradId": 17912,
      "line1": "1 17912U 87038B   26171.02546122  .00000259  00000+0  27109-4 0  9993",
      "line2": "2 17912  82.5005 200.3988 0019151 181.7075 178.4079 14.85446538 94421",
      "category": "satellite"
    },
    {
      "id": "17973",
      "name": "COSMOS 1844",
      "noradId": 17973,
      "line1": "1 17973U 87041A   26171.28924575 -.00000093  00000+0 -23168-4 0  9993",
      "line2": "2 17973  70.8964 177.7638 0032737 231.0117 128.8088 14.14567317 18091",
      "category": "satellite"
    },
    {
      "id": "18153",
      "name": "SL-14 R/B",
      "noradId": 18153,
      "line1": "1 18153U 87055B   26171.18647864  .00000291  00000+0  30625-4 0  9995",
      "line2": "2 18153  82.4993 252.4019 0021500  38.2316 322.0420 14.85712824 85153",
      "category": "satellite"
    },
    {
      "id": "18187",
      "name": "COSMOS 1867",
      "noradId": 18187,
      "line1": "1 18187U 87060A   26170.99752469 -.00000052  00000+0  17989-4 0  9998",
      "line2": "2 18187  65.0114  20.1880 0016587 282.1795  77.7432 14.31515983 34584",
      "category": "satellite"
    },
    {
      "id": "18749",
      "name": "SL-14 R/B",
      "noradId": 18749,
      "line1": "1 18749U 88001B   26171.25604897  .00000307  00000+0  32615-4 0  9994",
      "line2": "2 18749  82.5134  98.8867 0016454 258.4005 101.5364 14.85611338 57253",
      "category": "satellite"
    },
    {
      "id": "18958",
      "name": "COSMOS 1933",
      "noradId": 18958,
      "line1": "1 18958U 88020A   26171.20008958  .00002883  00000+0  13739-3 0  9994",
      "line2": "2 18958  82.5126 149.4515 0003864 175.2816 184.8456 15.18730163 65784",
      "category": "satellite"
    },
    {
      "id": "19046",
      "name": "SL-3 R/B",
      "noradId": 19046,
      "line1": "1 19046U 88032B   26171.20388739  .00003053  00000+0  14050-3 0  9991",
      "line2": "2 19046  97.5259 154.2414 0024012 233.7774 126.1242 15.20858294 67681",
      "category": "satellite"
    },
    {
      "id": "19120",
      "name": "SL-16 R/B",
      "noradId": 19120,
      "line1": "1 19120U 88039B   26171.29165578  .00000124  00000+0  81180-4 0  9999",
      "line2": "2 19120  71.0133 211.5938 0022063 188.4883 171.5872 14.19630164972949",
      "category": "satellite"
    },
    {
      "id": "19210",
      "name": "COSMOS 1953",
      "noradId": 19210,
      "line1": "1 19210U 88050A   26171.22343443  .00006245  00000+0  21340-3 0  9995",
      "line2": "2 19210  82.5073  54.9725 0012302 116.9471 243.3027 15.30012943 53455",
      "category": "satellite"
    },
    {
      "id": "19257",
      "name": "SL-8 R/B",
      "noradId": 19257,
      "line1": "1 19257U 88053B   26171.26606174  .00000137  00000+0  52784-4 0  9997",
      "line2": "2 19257  74.0482 283.3818 0019172  77.5680 306.9510 14.38968413991355",
      "category": "satellite"
    },
    {
      "id": "19573",
      "name": "COSMOS 1975",
      "noradId": 19573,
      "line1": "1 19573U 88093A   26170.96782130  .00006554  00000+0  22868-3 0  9993",
      "line2": "2 19573  82.5191  14.9043 0011614 162.1340 198.0311 15.29357369 35038",
      "category": "satellite"
    },
    {
      "id": "19574",
      "name": "SL-14 R/B",
      "noradId": 19574,
      "line1": "1 19574U 88093B   26171.17404089  .00000333  00000+0  35385-4 0  9990",
      "line2": "2 19574  82.5314 305.8403 0021974  61.2088  28.6360 14.85743706 16234",
      "category": "satellite"
    },
    {
      "id": "19650",
      "name": "SL-16 R/B",
      "noradId": 19650,
      "line1": "1 19650U 88102B   26170.75999340 -.00000010  00000+0  19062-4 0  9995",
      "line2": "2 19650  71.0001 296.7251 0015635 221.7122 138.2811 14.16164038941340",
      "category": "satellite"
    },
    {
      "id": "20261",
      "name": "INTERCOSMOS 24",
      "noradId": 20261,
      "line1": "1 20261U 89080A   26171.03453944  .00000669  00000+0  18852-3 0  9992",
      "line2": "2 20261  82.6063  37.7925 1188331  55.3054 315.4289 12.59665930679682",
      "category": "satellite"
    },
    {
      "id": "20262",
      "name": "SL-14 R/B",
      "noradId": 20262,
      "line1": "1 20262U 89080C   26171.28219613  .00000198  00000+0  59369-4 0  9999",
      "line2": "2 20262  82.5936 107.3194 1228607 310.3183  39.6662 12.50571992672971",
      "category": "satellite"
    },
    {
      "id": "20323",
      "name": "DELTA 1 R/B",
      "noradId": 20323,
      "line1": "1 20323U 89089B   26170.97820383  .00000211  00000+0  60576-4 0  9991",
      "line2": "2 20323  97.0636   2.0899 0069488 158.2169 202.2010 14.50732747910566",
      "category": "satellite"
    },
    {
      "id": "20443",
      "name": "ARIANE 40 R/B",
      "noradId": 20443,
      "line1": "1 20443U 90005H   26171.10217759  .00000167  00000+0  66516-4 0  9997",
      "line2": "2 20443  98.2957 228.6277 0008876 254.3180 105.7030 14.39928693907546",
      "category": "satellite"
    },
    {
      "id": "20453",
      "name": "DELTA 2 R/B(1)",
      "noradId": 20453,
      "line1": "1 20453U 90008B   26171.24452811  .00076170  00000+0  55392-3 0  9992",
      "line2": "2 20453  35.5992 215.1975 0064574 143.7417 216.7724 15.69250088942189",
      "category": "satellite"
    }
  ]
}