OBJECT_NAME,OBJECT_ID,EPOCH,MEAN_MOTION,ECCENTRICITY,INCLINATION,RA_OF_ASC_NODE,ARG_OF_PERICENTER,MEAN_ANOMALY,EPHEMERIS_TYPE,CLASSIFICATION_TYPE,NORAD_CAT_ID,ELEMENT_SET_NO,REV_AT_EPOCH,BSTAR,MEAN_MOTION_DOT,MEAN_MOTION_DDOT
SL-8 R/B,1985-006B,2026-06-20T03:55:56.627040,14.37836124,.00189367,74.0460,72.5867,319.2357,191.2299,0,U,15483,999,16875,.59355072E-4,.153E-5,0
SL-12 R/B(2),1985-042D,2026-06-20T04:20:52.975680,14.22006519,.0036456,71.1073,231.1909,323.2280,68.1453,0,U,15772,999,12896,.9416938E-5,-.27E-6,0
SL-14 R/B,1985-069B,2026-06-20T06:22:28.004160,14.86517484,.00180148,82.5273,288.4706,208.4202,151.6034,0,U,15945,999,18807,.37076642E-4,.353E-5,0
SL-16 R/B,1985-097B,2026-06-20T07:08:46.085568,14.16610347,.00053929,71.0034,284.5290,104.5895,285.1273,0,U,16182,999,10176,.72094373E-4,.96E-6,0
SL-14 R/B,1986-006B,2026-06-19T22:41:01.633920,14.86947877,.00748307,82.5261,163.5178,294.1623,65.1783,0,U,16496,999,16440,.42023773E-4,.421E-5,0
COSMOS 1743,1986-034A,2026-06-20T03:33:07.364160,15.67182279,.00040749,82.5279,325.5830,260.3039,99.7761,0,U,16719,999,19625,.41848262E-3,.44964E-3,0
SL-14 R/B,1986-046B,2026-06-20T04:24:31.217760,14.85672698,.00216717,82.4818,343.3435,247.8391,112.0526,0,U,16792,999,14162,.32050072E-4,.303E-5,0
SL-14 R/B,1986-055B,2026-06-20T01:24:55.861632,14.85724754,.0018788,82.5202,30.4328,358.2644,158.1303,0,U,16882,999,13456,.30564138E-4,.29E-5,0
AJISAI (EGS),1986-061A,2026-06-20T07:49:25.058208,12.44516755,.00111962,50.0070,137.7427,188.5399,143.3587,0,U,16908,999,48077,-.29168332E-4,-.102E-5,0
SL-14 R/B,1987-024B,2026-06-19T23:28:09.252768,14.86214627,.00167251,82.5279,356.6271,283.1537,76.7813,0,U,17567,999,10332,.30051631E-4,.289E-5,0
COSMOS 1833,1987-027A,2026-06-20T07:03:07.108992,14.13052434,.00228937,70.9187,110.3381,49.9325,310.3799,0,U,17589,999,2481,.20576684E-3,.337E-5,0
SL-16 R/B,1987-027B,2026-06-19T23:15:13.252032,14.17171124,.00066092,71.0032,60.9671,309.1403,50.9133,0,U,17590,999,2983,-.441611E-4,-.137E-5,0
SL-14 R/B,1987-038B,2026-06-20T00:36:39.849408,14.85446538,.00191514,82.5005,200.3988,181.7075,178.4079,0,U,17912,999,9442,.27109005E-4,.259E-5,0
COSMOS 1844,1987-041A,2026-06-20T06:56:30.832800,14.14567317,.00327376,70.8964,177.7638,231.0117,128.8088,0,U,17973,999,1809,-.23167803E-4,-.93E-6,0
SL-14 R/B,1987-055B,2026-06-20T04:28:31.754496,14.85712824,.00215001,82.4993,252.4019,38.2316,322.0420,0,U,18153,999,8515,.30624533E-4,.291E-5,0
COSMOS 1867,1987-060A,2026-06-19T23:56:26.133216,14.31515983,.00165874,65.0114,20.1880,282.1795,77.7432,0,U,18187,999,3458,.17989081E-4,-.52E-6,0
SL-14 R/B,1988-001B,2026-06-20T06:08:42.631008,14.85611338,.00164547,82.5134,98.8867,258.4005,101.5364,0,U,18749,999,5725,.32614721E-4,.307E-5,0
COSMOS 1933,1988-020A,2026-06-20T04:48:07.739712,15.18730163,.00038643,82.5126,149.4515,175.2816,184.8456,0,U,18958,999,6578,.13739228E-3,.2883E-4,0
SL-3 R/B,1988-032B,2026-06-20T04:53:35.870496,15.20858294,.00240125,97.5259,154.2414,233.7774,126.1242,0,U,19046,999,6768,.14049556E-3,.3053E-4,0
SL-16 R/B,1988-039B,2026-06-20T06:59:59.059392,14.19630164,.00220639,71.0133,211.5938,188.4883,171.5872,0,U,19120,999,97294,.81179528E-4,.124E-5,0
COSMOS 1953,1988-050A,2026-06-20T05:21:44.734752,15.30012943,.00123025,82.5073,54.9725,116.9471,243.3027,0,U,19210,999,5345,.21339904E-3,.6245E-4,0
SL-8 R/B,1988-053B,2026-06-20T06:23:07.734336,14.38968413,.00191729,74.0482,283.3818,77.5680,306.9510,0,U,19257,999,99135,.52783517E-4,.137E-5,0
COSMOS 1975,1988-093A,2026-06-19T23:13:39.760320,15.29357369,.00116142,82.5191,14.9043,162.1340,198.0311,0,U,19573,999,3503,.22867507E-3,.6554E-4,0
SL-14 R/B,1988-093B,2026-06-20T04:10:37.132896,14.85743706,.00219747,82.5314,305.8403,61.2088,28.6360,0,U,19574,999,1623,.35385251E-4,.333E-5,0
SL-16 R/B,1988-102B,2026-06-19T18:14:23.429760,14.16164038,.00156355,71.0001,296.7251,221.7122,138.2811,0,U,19650,999,94134,.19061698E-4,-.1E-6,0
INTERCOSMOS 24,1989-080A,2026-06-20T00:49:44.207616,12.59665930,.11883313,82.6063,37.7925,55.3054,315.4289,0,U,20261,999,67968,.18852351E-3,.669E-5,0
SL-14 R/B,1989-080C,2026-06-20T06:46:21.745632,12.50571992,.12286077,82.5936,107.3194,310.3183,39.6662,0,U,20262,999,67297,.59369102E-4,.198E-5,0
DELTA 1 R/B,1989-089B,2026-06-19T23:28:36.810912,14.50732747,.00694889,97.0636,2.0899,158.2169,202.2010,0,U,20323,999,91056,.60575837E-4,.211E-5,0
ARIANE 40 R/B,1990-005H,2026-06-20T02:27:08.143776,14.39928693,.00088761,98.2957,228.6277,254.3180,105.7030,0,U,20443,999,90754,.66516246E-4,.167E-5,0
DELTA 2 R/B(1),1990-008B,2026-06-20T05:52:07.228704,15.69250088,.00645743,35.5992,215.1975,143.7417,216.7724,0,U,20453,999,94218,.55391648E-3,.7617E-3,0
